[{"OBJECT_NAME":"STARLINK-1494","OBJECT_ID":"2020-038AG","EPOCH":"2026-03-09T11:55:54.806304","MEAN_MOTION":15.73709706,"ECCENTRICITY":0.00054124,"INCLINATION":53.048,"RA_OF_ASC_NODE":152.5788,"ARG_OF_PERICENTER":2.9213,"MEAN_ANOMALY":357.1836,"EPHEMERIS_TYPE":0,"CLASSIFICATION_TYPE":"U","NORAD_CAT_ID":45760,"ELEMENT_SET_NO":999,"REV_AT_EPOCH":31736,"BSTAR":0.00067102324,"MEAN_MOTION_DOT":0.00096828,"MEAN_MOTION_DDOT":0},{"OBJECT_NAME":"STARLINK-36587","OBJECT_ID":"2026-014A","EPOCH":"2026-03-09T20:34:49.648512","MEAN_MOTION":15.75273057,"ECCENTRICITY":8.425e-5,"INCLINATION":97.2852,"RA_OF_ASC_NODE":313.8586,"ARG_OF_PERICENTER":66.8172,"MEAN_ANOMALY":293.3182,"EPHEMERIS_TYPE":0,"CLASSIFICATION_TYPE":"U","NORAD_CAT_ID":67532,"ELEMENT_SET_NO":999,"REV_AT_EPOCH":860,"BSTAR":0.0011496844,"MEAN_MOTION_DOT":0.00175552,"MEAN_MOTION_DDOT":0}]
