STARLINK-1494           
1 45760U 20038AG  26068.49716211  .00096828  00000+0  67102-3 0  9999
2 45760  53.0480 152.5788 0005412   2.9213 357.1836 15.73709706317367
STARLINK-36587          
1 67532U 26014A   26068.85751908  .00175552  00000+0  11497-2 0  9999
2 67532  97.2852 313.8586 0000842  66.8172 293.3182 15.75273057  8600
